CIC_OEM_VERS = 2.0
CREATION_DATE = 2025-05-13T13:35:43.068236
ORIGINATOR = ISAE-SUPAERO


META_START
OBJECT_NAME = RED2
OBJECT_ID = RED2
CENTER_NAME = Earth
REF_FRAME = EME2000
TIME_SYSTEM = UTC
START_TIME = 2025-05-13T00:00:00.000
USEABLE_START_TIME = 2025-05-13T00:00:00.000
USEABLE_STOP_TIME = 2025-05-13T23:55:00.000
STOP_TIME = 2025-05-13T23:55:00.000
INTERPOLATION = lagrange
INTERPOLATION_DEGREE = 5
META_STOP



60808 0.0 1141.3702 2366.6262 6477.9512 -0.37052067 -7.0538623 2.6089181
60808 420.0 875.8891800000001 -734.33013 6881.294900000001 -0.8724369900000001 -7.4592932 -0.7244552700000001
60808 840.0 433.00974 -3685.7092000000002 5886.7545 -1.2005055 -6.3500317 -3.9340509000000004
60808 1260.0 -98.23055400000001 -5883.031 3686.4937999999997 -1.2851156000000001 -3.9266496 -6.3635637
60808 1680.0 -609.06273 -6866.5001 724.7141700000001 -1.1043604 -0.6702475 -7.4923814
60808 2100.0 -993.38125 -6424.2667 -2387.4586 -0.6931877 2.7399994000000003 -7.0642778
60808 2520.0 -1171.0571000000002 -4645.5646 -5001.692599999999 -0.13820187 5.5787063 -5.164623
60808 2940.0 -1105.829 -1902.9014 -6576.0077 0.44274292000000004 7.250112100000001 -2.2029594
60808 3360.0 -812.53012 1232.8962 -6790.9627 0.9289072 7.4207564 1.1933734999999999
60808 3780.0 -352.72621000000004 4116.8005 -5611.1013 1.2223166 6.074934000000001 4.324050199999999
60808 4200.0 179.00494 6162.8431 -3285.2003 1.2659478 3.50179 6.5579415
60808 4620.0 674.54916 6959.9708 -291.24131 1.0533051 0.23085734 7.4523701
60808 5040.0 1033.9505 6351.7981 2762.0268 0.62899065 -3.0756379000000003 6.8373386
60808 5460.0 1185.1884 4464.6144 5257.907700000001 0.07894308800000001 -5.7567018 4.8441137
60808 5880.0 1097.9726 1679.2576999999999 6693.099200000001 -0.48738434 -7.2803382 1.8714739
60808 6300.0 789.3157600000001 -1444.3231 6774.5841 -0.95764578 -7.3380469999999995 -1.4938149
60808 6720.0 320.52578000000005 -4273.9067000000005 5477.4631 -1.236395 -5.900143 -4.5803683
60808 7140.0 -213.76109 -6227.2933 3056.0978999999998 -1.263317 -3.2347562 -6.750809100000001
60808 7560.0 -703.74308 -6893.503900000001 2.3142905999999996 -1.0285255 0.12165009 -7.5345272
60808 7980.0 -1047.4244 -6127.0758 -3051.5875 -0.57900771 3.4637927 -6.7495262
60808 8400.0 -1173.2705 -4086.2628 -5469.2788 -0.010056642999999999 6.0808279 -4.560754200000001
60808 8820.0 -1056.0358 -1198.3901 -6751.1788 0.55789575 7.4278174 -1.4393145
60808 9240.0 -721.32584 1936.9471 -6639.584400000001 1.0076122 7.2418486 1.9575259
60808 9660.0 -238.99744 4676.7619 -5166.2357 1.2491223 5.5801646 4.933566300000001
60808 10080.0 292.04182000000003 6465.799400000001 -2638.9388 1.2359875 2.7940676 6.8913539
60808 10500.0 764.03032 6945.7527 424.54116999999997 0.9730971700000001 -0.54578214 7.4447898
60808 10920.0 1081.9281 6024.3517 3402.4606000000003 0.5149568000000001 -3.7652677 6.4925370000000004
60808 11340.0 1182.0943 3890.3795 5693.921200000001 -0.046125400999999996 -6.2224832 4.2319764
60808 11760.0 1044.3701 973.63284 6836.3741 -0.5987904 -7.4294044999999995 1.1129486
60808 12180.0 695.77983 -2139.1362999999997 6594.5443 -1.0330992 -7.1375603000000005 -2.2487649000000003
60808 12600.0 205.78041000000002 -4815.999400000001 5008.1726 -1.2600073999999999 -5.3848153000000005 -5.178395000000001
60808 13020.0 -326.28996 -6503.4622 2391.7294 -1.2291706 -2.5055931 -7.0644852
60808 13440.0 -790.69028 -6844.4328 -720.4325200000001 -0.94294994 0.91337886 -7.4931014
60808 13860.0 -1090.6117 -5762.0085 -3682.1275 -0.45999379 4.1494606 -6.3598549
60808 14280.0 -1163.8281000000002 -3481.6574 -5876.5949 0.1170187 6.5157173 -3.9070587999999997
60808 14700.0 -996.22266 -480.32966 -6852.2749 0.6664773 7.524212 -0.6608377000000001
60808 15120.0 -623.76813 2620.4319 -6415.7547 1.0757503 6.9845675 2.6994598
60808 15540.0 -123.82045 5186.6345 -4665.2252 1.2635318 5.0255228 5.4890639000000006
60808 15960.0 401.36808 6699.552900000001 -1964.0292 1.1942821 2.0567109 7.1501301999999995
60808 16380.0 845.42608 6857.330599999999 1135.9249 0.8841443400000001 -1.3163095 7.357186899999999
60808 16800.0 1119.0827 5632.5863 4006.5611000000004 0.3968304 -4.4148098000000005 6.0781929
60808 17220.0 1167.5713 3274.4706 6068.99 -0.16994651 -6.622301800000001 3.5740852
60808 17640.0 980.9685400000001 257.3163 6906.1165 -0.70378817 -7.499265500000001 0.34123313000000005
60808 18060.0 596.04458 -2811.1874 6342.923 -1.0980727 -6.8595654 -2.981207
60808 18480.0 89.772877 -5305.8652999999995 4483.821 -1.270977 -4.8093273 -5.721323099999999
60808 18519.0 -18793.856 -4836.8951 -4836.8951 1.526882 -2.9663654999999998 -2.9663654999999998
60808 18639.0 -18603.853 -5191.0657 -5191.0651 1.6386809 -2.9363978000000004 -2.9363879
60808 18759.0 -18400.547 -5541.5261 -5541.5235999999995 1.7493258 -2.9043092 -2.9042886
60808 18879.0 -18184.051 -5888.0133 -5888.0078 1.8587135000000001 -2.8701351 -2.8701032
60808 18999.0 -17954.508 -6230.276 -6230.2659 1.9667670000000002 -2.8339016000000004 -2.8338578
60808 19119.0 -17712.083 -6568.0684 -6568.0523 2.0734085 -2.7956352000000004 -2.7955787
60808 19239.0 -17456.95 -6901.1482000000005 -6901.1245 2.1785614 -2.7553631999999997 -2.7552935
60808 19359.0 -17189.291 -7229.2765 -7229.2436 2.2821502999999996 -2.7131146 -2.713031
60808 19479.0 -16909.299 -7552.217900000001 -7552.1741 2.3841010000000002 -2.6689197 -2.6688218000000004
60808 19599.0 -16617.175 -7869.7407 -7869.684200000001 2.4843403 -2.6228104 -2.6226974000000003
60808 19719.0 -16313.129 -8181.6170999999995 -8181.546200000001 2.5827963 -2.5748195999999997 -2.5746911
60808 19839.0 -15997.379 -8487.6235 -8487.536199999999 2.6793984 -2.5249818 -2.5248373
60808 19959.0 -15670.15 -8787.5403 -8787.4347 2.7740773 -2.4733329 -2.4731718000000003
60808 20079.0 -15331.68 -9081.1524 -9081.0265 2.8667651999999997 -2.41991 -2.4197318
60808 20199.0 -14982.209 -9368.2492 -9368.100900000001 2.9573956 -2.3647512 -2.3645557
60808 20319.0 -14621.99 -9648.6249 -9648.452 3.0459035 -2.3078964 -2.3076828999999996
60808 20439.0 -14251.28 -9922.0782 -9921.8785 3.1322255 -2.2493862 -2.2491545
60808 20559.0 -13870.345000000001 -10188.413 -10188.184000000001 3.2162997 -2.1892627000000005 -2.1890123
60808 20679.0 -13479.460000000001 -10447.438 -10447.179 3.2980657 -2.127569 -2.1272997
60808 20799.0 -13078.904 -10698.969000000001 -10698.675000000001 3.3774650999999998 -2.0643494000000002 -2.0640608
60808 20919.0 -12668.965 -10942.823 -10942.494 3.4544409000000003 -1.9996492000000001 -1.999341
60808 21039.0 -12249.938 -11178.827000000001 -11178.460000000001 3.5289379 -1.9335149 -1.9331869
60808 21159.0 -11822.122 -11406.811 -11406.403 3.6009028 -1.8659938999999999 -1.8656458
60808 21279.0 -11385.824 -11626.612000000001 -11626.161 3.6702839 -1.7971346000000001 -1.7967663
60808 21399.0 -10941.359 -11838.072 -11837.576000000001 3.7370316 -1.7269865 -1.7265977000000001
60808 21519.0 -10489.044 -12041.039 -12040.495 3.801098 -1.6555998 -1.6551905
60808 21639.0 -10029.204 -12235.368 -12234.774 3.8624372 -1.5830256999999999 -1.5825958
60808 21759.0 -9562.1699 -12420.92 -12420.273000000001 3.9210053 -1.5093163 -1.5088657
60808 21879.0 -9088.275599999999 -12597.561 -12596.858 3.9767603 -1.4345245 -1.4340531
60808 21999.0 -8607.8615 -12765.165 -12764.404 4.029662200000001 -1.3587038 -1.3582117
60808 22119.0 -8121.2723 -12923.611 -12922.79 4.0796731 -1.2819086 -1.2813959
60808 22239.0 -7628.8571 -13072.786 -13071.903 4.1267572 -1.2041941 -1.2036607
60808 22359.0 -7130.969 -13212.583 -13211.634 4.1708808 -1.1256158 -1.1250619
60808 22479.0 -6627.965400000001 -13342.901 -13341.885 4.2120122 -1.0462301999999999 -1.0456559
60808 22599.0 -6120.2069 -13463.648000000001 -13462.562 4.250122 -0.9660941900000001 -0.96549967
60808 22719.0 -5608.058 -13574.736 -13573.577000000001 4.285182799999999 -0.8852651300000001 -0.88465058
60808 22839.0 -5091.886 -13676.086000000001 -13674.852 4.317169600000001 -0.80380102 -0.80316667
60808 22959.0 -4572.0612 -13767.626 -13766.314 4.3460593 -0.72176023 -0.72110635
60808 23079.0 -4048.9565000000002 -13849.288 -13847.897 4.3718313 -0.63920158 -0.63852848
60808 23199.0 -3522.9472 -13921.016 -13919.543 4.3944671 -0.55618425 -0.55549225
60808 23319.0 -2994.4105 -13982.756 -13981.199 4.4139505 -0.47276773 -0.47205721
60808 23439.0 -2463.7257000000004 -14034.466 -14032.823 4.4302674 -0.38901182 -0.38828318
60808 23559.0 -1931.2735 -14076.108 -14074.376 4.4434062 -0.30497656 -0.30423022
60808 23679.0 -1397.4357 -14107.652 -14105.829 4.4533574 -0.22072217000000002 -0.2199586
60808 23799.0 -862.59548 -14129.075 -14127.16 4.4601138 -0.13630904000000002 -0.13552875
60808 23919.0 -327.13639 -14140.362000000001 -14138.352 4.4636707 -0.05179769000000001 -0.051001204
60808 24039.0 208.55739000000003 -14141.505000000001 -14139.399 4.4640253 0.032751313000000004 0.033563432
60808 24159.0 744.10158 -14132.503 -14130.298 4.4611773999999995 0.11727736 0.11810451999999999
60808 24279.0 1279.112 -14113.362000000001 -14111.057 4.455129100000001 0.20171987 0.20256144
60808 24399.0 1813.2047 -14084.096 -14081.689 4.4458845 0.28601829 0.28687362
60808 24519.0 2345.9966 -14044.726 -14042.216 4.4334503000000005 0.37011221 0.37098061000000004
60808 24639.0 2877.1055 -13995.279 -13992.665 4.4178353 0.45394133 0.4548221
60808 24759.0 3406.1503 -13935.793 -13933.071 4.3990507 0.53744556 0.53833794
60808 24879.0 3932.7514 -13866.308 -13863.479000000001 4.3771098 0.6205650100000001 0.62146824
60808 24999.0 4456.5311 -13786.875 -13783.937 4.3520284 0.70324011 0.7041533799999999
60808 25119.0 4977.1134 -13697.550000000001 -13694.502 4.3238243 0.7854115500000001 0.78633404
60808 25239.0 5494.1248 -13598.399 -13595.239 4.2925178 0.86702042 0.86795128
60808 25359.0 6007.1944 -13489.49 -13486.219000000001 4.2581311 0.94800819 0.94894655
60808 25479.0 6515.954 -13370.904 -13367.519 4.2206889 1.0283168 1.0292617
60808 25599.0 7020.0386 -13242.724 -13239.225 4.1802179 1.1078886000000001 1.1088392
60808 25719.0 7519.0863 -13105.042 -13101.43 4.1367471 1.1866665 1.1876217999999998
